{"type":"FeatureCollection","meta":{"name":"takanawa","total_m":4401,"by_mode_m":{"train":950,"walk":3451},"bounds":[139.737401,35.616511,139.743016,35.638679]},"features":[
{"type":"Feature","properties":{"kind":"leg","mode":"walk","from":"","to":"","d0":0,"d1":2266,"approx":false},"geometry":{"type":"LineString","coordinates":[[139.741099,35.616946],[139.740992,35.618295],[139.741428,35.618283],[139.741399,35.618702],[139.742,35.618673],[139.742072,35.618917],[139.742415,35.618807],[139.742451,35.618935],[139.742544,35.618952],[139.742544,35.619028],[139.742958,35.619225],[139.741592,35.620394],[139.742372,35.620871],[139.742493,35.620708],[139.743016,35.621004],[139.741929,35.622272],[139.741278,35.621871],[139.741163,35.621993],[139.740441,35.621574],[139.739768,35.622487],[139.738996,35.623882],[139.739039,35.624464],[139.739475,35.624127],[139.740169,35.624359],[139.739804,35.624813],[139.740097,35.624975],[139.740348,35.625475],[139.741249,35.625429],[139.741657,35.628342],[139.740384,35.62844]]}},
{"type":"Feature","properties":{"kind":"leg","mode":"train","from":"","to":"","d0":2266,"d1":3216,"approx":false},"geometry":{"type":"LineString","coordinates":[[139.740384,35.62844],[139.738649,35.628368],[139.738535,35.62924],[139.738521,35.629775],[139.738564,35.630275],[139.738935,35.631275],[139.739665,35.632798],[139.740166,35.634089],[139.740681,35.635217]]}},
{"type":"Feature","properties":{"kind":"leg","mode":"walk","from":"","to":"","d0":3216,"d1":4401,"approx":false},"geometry":{"type":"LineString","coordinates":[[139.740681,35.635217],[139.740462,35.63547],[139.740119,35.63547],[139.739754,35.634552],[139.739532,35.634121],[139.739089,35.634255],[139.739096,35.634685],[139.739368,35.635191],[139.739697,35.636057],[139.740012,35.636615],[139.740183,35.636976],[139.740612,35.637499],[139.741042,35.638679],[139.741349,35.638162],[139.740884,35.637354],[139.740484,35.637179],[139.740148,35.636505],[139.740097,35.636022],[139.740119,35.635551]]}},
{"type":"Feature","properties":{"kind":"spot","name":"新馬場駅","category":"station","note":"","d":0,"show":true},"geometry":{"type":"Point","coordinates":[139.741465,35.616511]}},
{"type":"Feature","properties":{"kind":"spot","name":"品川神社","category":"spot","note":"","d":150,"show":true},"geometry":{"type":"Point","coordinates":[139.740665,35.618495]}},
{"type":"Feature","properties":{"kind":"spot","name":"路地裏の井戸","category":"spot","note":"","d":258,"show":true},"geometry":{"type":"Point","coordinates":[139.741645,35.61871]}},
{"type":"Feature","properties":{"kind":"spot","name":"旧東海道品川宿","category":"spot","note":"","d":486,"show":true},"geometry":{"type":"Point","coordinates":[139.742525,35.619623]}},
{"type":"Feature","properties":{"kind":"spot","name":"御殿山台場跡","category":"spot","note":"","d":818,"show":true},"geometry":{"type":"Point","coordinates":[139.742722,35.621333]}},
{"type":"Feature","properties":{"kind":"spot","name":"品川浦船溜り","category":"spot","note":"","d":992,"show":true},"geometry":{"type":"Point","coordinates":[139.741496,35.622034]}},
{"type":"Feature","properties":{"kind":"spot","name":"八ツ山橋","category":"spot","note":"","d":1461,"show":true},"geometry":{"type":"Point","coordinates":[139.738996,35.624396]}},
{"type":"Feature","properties":{"kind":"spot","name":"品川セントラルガーデン","category":"spot","note":"","d":1915,"show":true},"geometry":{"type":"Point","coordinates":[139.741347,35.626239]}},
{"type":"Feature","properties":{"kind":"spot","name":"品川駅港南口","category":"spot","note":"","d":2266,"show":true},"geometry":{"type":"Point","coordinates":[139.740384,35.62844]}},
{"type":"Feature","properties":{"kind":"spot","name":"品川駅","category":"station","note":"","d":2645,"show":true},"geometry":{"type":"Point","coordinates":[139.737401,35.630651]}},
{"type":"Feature","properties":{"kind":"spot","name":"高輪ゲートウェイシティ","category":"spot","note":"","d":4369,"show":true},"geometry":{"type":"Point","coordinates":[139.739926,35.635827]}}
]}
